GPS BIIA-23 (PRN 18)    
1 22877U 93068A   18183.33263837 -.00000045  00000-0  00000+0 0  9997
2 22877  54.4354  82.8827 0145144  75.3384  99.6508  2.00566958180857
GPS BIIR-2  (PRN 13)    
1 24876U 97035A   18183.48275215  .00000055  00000-0  00000+0 0  9995
2 24876  55.4875 212.1671 0030716  88.4536 271.9578  2.00564909153456
GPS BIIR-3  (PRN 11)    
1 25933U 99055A   18183.33247703 -.00000068  00000-0  00000+0 0  9994
2 25933  51.8977  61.0300 0167406 102.0177  75.5312  2.00566962137261
GPS BIIR-4  (PRN 20)    
1 26360U 00025A   18183.35092249  .00000026  00000-0  00000+0 0  9996
2 26360  53.2068 139.0351 0037559 118.4956 119.6914  2.00564006132963
GPS BIIR-5  (PRN 28)    
1 26407U 00040A   18183.40508493 -.00000060  00000-0  00000+0 0  9993
2 26407  56.4730 330.3007 0196789 272.8955 343.0144  2.00563133131647
GPS BIIR-6  (PRN 14)    
1 26605U 00071A   18183.37855458  .00000055  00000-0  00000+0 0  9992
2 26605  55.0609 209.7568 0102276 248.8648 252.7727  2.00572083129237
GPS BIIR-8  (PRN 16)    
1 27663U 03005A   18183.39001315 -.00000060  00000-0  00000+0 0  9991
2 27663  56.5372 330.0596 0098922  28.7944 336.1080  2.00566193113002
GPS BIIR-9  (PRN 21)    
1 27704U 03010A   18183.35109245 -.00000046  00000-0  00000+0 0  9994
2 27704  54.1061  82.4632 0245942 271.4096  24.6323  2.00562938111805
GPS BIIR-10 (PRN 22)    
1 28129U 03058A   18183.17680447  .00000028  00000-0  00000+0 0  9995
2 28129  53.0199 141.8940 0075447 272.9870  86.1174  2.00551098106497
GPS BIIR-11 (PRN 19)    
1 28190U 04009A   18182.68226382 -.00000073  00000-0  00000+0 0  9990
2 28190  56.1776  30.9310 0096600  69.4275 291.6366  2.00558979104669
GPS BIIR-12 (PRN 23)    
1 28361U 04023A   18183.36260964  .00000057  00000-0  00000+0 0  9997
2 28361  54.0620 204.4822 0127840 226.2101 183.0503  2.00551603102765
GPS BIIR-13 (PRN 02)    
1 28474U 04045A   18183.14053411 -.00000046  00000-0  00000+0 0  9998
2 28474  54.4741  82.0913 0181327 254.3778 353.9901  2.00552807100126
GPS BIIRM-1 (PRN 17)    
1 28874U 05038A   18183.07412194 -.00000072  00000-0  00000+0 0  9993
2 28874  56.3184  28.2276 0125814 258.3753  48.2493  2.00575219 93529
GPS BIIRM-2 (PRN 31)    
1 29486U 06042A   18183.36853921 -.00000009  00000-0  00000+0 0  9998
2 29486  55.1702 267.0613 0087839 351.2599  92.7103  2.00561972 86249
GPS BIIRM-3 (PRN 12)    
1 29601U 06052A   18183.19532803 -.00000060  00000-0  00000+0 0  9999
2 29601  56.5132 328.9840 0069688  56.2721 304.3882  2.00576749 85153
GPS BIIRM-4 (PRN 15)    
1 32260U 07047A   18183.01805224  .00000054  00000-0  00000+0 0  9992
2 32260  53.1865 200.5048 0101899  38.1482 322.6086  2.00552241 78537
GPS BIIRM-5 (PRN 29)    
1 32384U 07062A   18183.28804233 -.00000071  00000-0  00000+0 0  9994
2 32384  56.3928  28.8295 0006101  70.4725 259.8163  2.00564500 77260
GPS BIIRM-6 (PRN 07)    
1 32711U 08012A   18183.42653410 -.00000009  00000-0  00000+0 0  9990
2 32711  54.9043 266.3341 0119718 216.6310 142.6164  2.00565763 75451
GPS BIIRM-8 (PRN 05)    
1 35752U 09043A   18183.10510155  .00000032  00000-0  00000+0 0  9991
2 35752  54.3247 144.1067 0053189  33.8249 123.6445  2.00556292 65037
GPS BIIF-1  (PRN 25)    
1 36585U 10022A   18183.48972767 -.00000059  00000-0  00000+0 0  9997
2 36585  55.8033 325.5235 0073039  48.6487 129.8818  2.00569532 59291
GPS BIIF-2  (PRN 01)    
1 37753U 11036A   18183.35656185 -.00000040  00000-0  00000+0 0  9990
2 37753  55.6735  85.6275 0078071  36.0248 132.7733  2.00564500 50965
GPS BIIF-3  (PRN 24)    
1 38833U 12053A   18183.10858670 -.00000006  00000-0  00000+0 0  9998
2 38833  53.9346 262.8893 0068626  29.3010 331.1568  2.00567124 42031
GPS BIIF-4  (PRN 27)    
1 39166U 13023A   18182.96677639 -.00000074  00000-0  00000+0 0  9998
2 39166  56.0151  25.1232 0059074  23.4334 336.8830  2.00562630 37560
GPS BIIF-5  (PRN 30)    
1 39533U 14008A   18182.96659611 -.00000012  00000-0  00000+0 0  9992
2 39533  54.0788 268.2471 0035687 189.4769 170.5243  2.00557915 31921
GPS BIIF-6  (PRN 06)    
1 39741U 14026A   18182.74619056 -.00000042  00000-0  00000+0 0  9991
2 39741  55.6565  85.1747 0012960 294.8703  65.0327  2.00566223 30205
GPS BIIF-7  (PRN 09)    
1 40105U 14045A   18183.33631150  .00000057  00000-0  00000+0 0  9998
2 40105  54.5879 204.5961 0006750 111.5450 248.5738  2.00572732 28669
GPS BIIF-8  (PRN 03)    
1 40294U 14068A   18183.20928127  .00000036  00000-0  00000+0 0  9998
2 40294  55.0759 145.3811 0014086  18.4088 341.6093  2.00557130 26886
GPS BIIF-9  (PRN 26)    
1 40534U 15013A   18183.34407007 -.00000061  00000-0  00000+0 0  9999
2 40534  54.7439 324.2348 0027695   2.1510 357.8615  2.00562908 23950
GPS BIIF-10  (PRN 08)   
1 40730U 15033A   18183.00887175 -.00000074  00000-0  00000+0 0  9994
2 40730  55.5453  24.6208 0035564 333.3066  26.5571  2.00573936 21703
GPS BIIF-11  (PRN 10)   
1 41019U 15062A   18183.05874103  .00000034  00000-0  00000+0 0  9994
2 41019  55.0808 145.1903 0037017 205.7316 154.0517  2.00564460 19525
GPS BIIF-12  (PRN 32)   
1 41328U 16007A   18183.14641864  .00000057  00000-0  00000+0 0  9998
2 41328  54.8382 204.8980 0023837 219.5022 140.3716  2.00562723 17585
